ICEYE-X26               
1 56961U 23084AF  26068.94217167  .00072488  00000+0  52392-3 0  9995
2 56961  97.5771 224.5701 0000918 250.4470 109.6694 15.73279775153542
STARLINK-11625 [DTC]    
1 63109U 25039F   26067.93042375  .00273465  00000+0  20584-2 0  9999
2 63109  42.9994 241.6366 0002888 245.5388 114.5179 15.70919339 59499
